HELIOS 1B               
1 25977U 99064A   21002.73471121  .00000048  00000-0  13052-4 0  9996
2 25977  98.2997 170.8646 0002428  76.7023 283.4460 14.82522500404643
TERRA                   
1 25994U 99068A   21003.20863902  .00000073  00000-0  26293-4 0  9993
2 25994  98.1951  80.5171 0001244  99.2070 282.7887 14.57117646119403
SL-16 R/B               
1 26070U 00006B   21002.87789815 -.00000246  00000-0 -10123-3 0  9993
2 26070  71.0031 114.1858 0016756 189.5380 170.5428 14.15470764 80853
MTI                     
1 26102U 00014A   21002.95451509  .00007877  00000-0  10591-3 0  9997
2 26102  97.4811 261.0035 0005318 198.1418 161.9553 15.58172401155554
TITAN 4B R/B            
1 26474U 00047B   21002.95867535  .00000174  00000-0  25921-4 0  9992
2 26474  67.9928 246.5087 0058110 333.5401  26.2777 14.96062007109086
ENVISAT                 
1 27386U 02009A   21002.98290299  .00000015  00000-0  18296-4 0  9996
2 27386  98.1408   5.5715 0001270  86.1597 326.7881 14.38007173987291
IDEFIX & ARIANE 42P R/B 
1 27422U 02021B   21003.10903345  .00000022  00000-0  25227-4 0  9999
2 27422  98.3809 322.1855 0012409   6.7980 353.3369 14.29304682971792
AQUA                    
1 27424U 02022A   21003.17711130  .00000112  00000-0  34871-4 0  9993
2 27424  98.2134 306.8729 0002526  84.8140  28.5496 14.57112693993007
CZ-4B R/B               
1 27432U 02024C   21003.00912650 -.00000031  00000-0  79174-5 0  9993
2 27432  99.0898  14.6083 0050017 334.4954  78.1421 14.14102335961935
MIDORI II (ADEOS-II)    
1 27597U 02056A   21003.09564917  .00000055  00000-0  39854-4 0  9993
2 27597  98.5461 311.8948 0001933 102.8665 257.2732 14.27478232940295
H-2A R/B                
1 27601U 02056E   21003.08606469  .00000080  00000-0  43390-4 0  9995
2 27601  98.2057  34.3678 0072911  43.6571  14.1640 14.31997615943251
CZ-4B R/B               
1 28059U 03049C   21003.01122681  .00000046  00000-0  22880-4 0  9991
2 28059  98.4904 287.7821 0048936 248.1248 111.4739 14.52629000911785
CZ-2C R/B               
1 28222U 04012C   21002.91401140  .00000774  00000-0  49661-4 0  9996
2 28222  97.7055 332.3265 0048353  68.3440 351.6191 15.10636248916102
SL-16 R/B               
1 28353U 04021B   21003.02110621 -.00000183  00000-0 -70710-4 0  9990
2 28353  71.0008 240.7730 0004498   1.4363 358.6771 14.14243947855367
CZ-4B R/B               
1 28415U 04035C   21002.84212793  .00000177  00000-0  15755-4 0  9995
2 28415  97.5891  47.9503 0052274  34.0654 326.3910 15.06996856893662
CZ-2C R/B               
1 28480U 04046B   21003.06831681 -.00000021  00000-0  74919-5 0  9994
2 28480  98.0601  28.3359 0141738 354.4090  17.0690 14.25737321838880
ARIANE 5 R/B            
1 28499U 04049H   21003.21697566  .00000066  00000-0  15606-4 0  9991
2 28499  98.0628 111.7316 0091768 348.5465  67.8272 14.80078192865688
CZ-2D R/B               
1 28738U 05024B   21003.02955314  .00000418  00000-0  27792-4 0  9998
2 28738  97.3702  24.8536 0011047 207.0535 153.0121 15.12227894851582
SUZAKU (ASTRO-EII)      
1 28773U 05025A   21002.75566481  .00001420  00000-0  63842-4 0  9990
2 28773  31.3803 160.4080 0004444  51.5564 308.5482 15.17984905854262
ALOS (DAICHI)           
1 28931U 06002A   21003.22878575  .00000195  00000-0  46888-4 0  9994
2 28931  97.8660 345.4026 0001212 111.8031 248.3297 14.62782352796902
H-2A R/B                
1 28932U 06002B   21002.99291601  .00000425  00000-0  44861-4 0  9992
2 28932  98.3307  10.4004 0089134  29.5944  22.6154 14.92399971811018
AKARI (ASTRO-F)         
1 28939U 06005A   21002.94693299  .00005183  00000-0  13364-3 0  9995
2 28939  98.2479   6.3629 0089915 346.7975  13.0913 15.35649013811498
RESURS-DK 1             
1 29228U 06021A   21002.79587470  .00000144  00000-0  18128-4 0  9997
2 29228  69.9358  40.5043 0004434 198.3594 161.7407 15.02624451802696
GENESIS 1               
1 29252U 06029A   21002.73037864  .00000734  00000-0  45357-4 0  9992
2 29252  64.5225   9.6976 0022013 349.2017  10.8630 15.18407465798358
CZ-4B R/B               
1 29507U 06046C   21002.93511253  .00000298  00000-0  28060-4 0  9992
2 29507  97.7175  29.8616 0045027 213.1335 146.7067 15.00610867775283
CZ-2C R/B               
1 31114U 07010B   21002.80845646  .00000019  00000-0  27253-4 0  9997
2 31114  98.2384 208.0764 0060580  46.7262 313.8947 14.19342760711280
COSMO-SKYMED 1          
1 31598U 07023A   21003.17394675 -.00000125  00000-0 -92072-5 0  9991
2 31598  97.8821 189.4342 0001442  94.1787 265.9565 14.82153896734415
GENESIS 2               
1 31789U 07028A   21002.86414098  .00000806  00000-0  49799-4 0  9996
2 31789  64.5046  51.2666 0030809 221.5656 138.3125 15.17541387745436
COSMOS 2428             
1 31792U 07029A   21003.01848390 -.00000141  00000-0 -50405-4 0  9995
2 31792  70.8911 213.6899 0006357 152.6790 207.4666 14.12241629697048
SL-16 R/B               
1 31793U 07029B   21003.22437022  .00000173  00000-0  11509-3 0  9999
2 31793  70.9731 186.7129 0002221 275.4064 257.4559 14.14436386697976
KORONAS-FOTON           
1 33504U 09003A   21002.80685235  .00000830  00000-0  41666-4 0  9997
2 33504  82.4411  24.4424 0017748 312.8144  47.1595 15.15828988657573
H-2A R/B                
1 38341U 12025E   21002.88354746  .00000205  00000-0  31638-4 0  9991
2 38341  98.5170 177.1036 0054548 312.1471  47.5113 14.84141991466943
CUSAT 2 & FALCON 9 R/B  
1 39271U 13055G   21002.86620027  .00006298  00000-0  15111-3 0  9999
2 39271  80.9657  52.1573 0577133 289.5724  64.4044 14.50545798379611
SL-4 R/B                
1 39679U 14021B   21003.11578430  .00000254  00000-0  30201-4 0  9998
2 39679  51.6168 260.6880 0170361 277.8028  80.3632 15.06710237369445
ALOS-2                  
1 39766U 14029A   21003.23097619 -.00000117  00000-0 -87614-5 0  9992
2 39766  97.9226 102.9755 0001689 104.9902 255.1550 14.79469494357236
CZ-2C R/B               
1 40306U 14071B   21003.03693785  .00004085  00000-0  83501-4 0  9991
2 40306  97.3509 317.7445 0015577 151.1987 209.0126 15.46618368344702
SL-27 R/B               
1 40354U 14084B   21003.17647216  .00001361  00000-0  33922-4 0  9997
2 40354  74.7380 334.7902 0035587  61.7618 298.7179 15.40675682339284
YAOGAN 29               
1 41038U 15069A   21003.22748340  .00000066  00000-0  15531-4 0  9994
2 41038  98.0258 357.0496 0001228  46.1263 314.0053 14.80479785275833
ASTRO-H (HITOMI)        
1 41337U 16012A   21002.87049110  .00000299  00000-0  17234-4 0  9994
2 41337  31.0038 185.3076 0012462 242.4054 117.5316 14.98765957267449
HXMT (HUIYAN)           
1 42758U 17034A   21003.10525123  .00000586  00000-0  50026-4 0  9992
2 42758  43.0191  20.6003 0009817 211.9394 209.6601 15.09023184196037
CZ-2C R/B               
1 43521U 18054D   21003.13973701  .00000591  00000-0  34175-4 0  9999
2 43521  35.1545  29.1349 0081661  79.2279 281.7615 15.11271739139376
AEOLUS                  
1 43600U 18066A   21003.01565709  .00031373  00000-0  12466-3 0  9992
2 43600  96.7191  12.3954 0007254 105.6285 254.5789 15.86598443137012
SAOCOM 1A               
1 43641U 18076A   21003.18231920  .00000050  00000-0  12866-4 0  9994
2 43641  97.8847 192.4547 0001380  81.7712 278.3648 14.82152112121181
CREW DRAGON DEMO-1 DEB  
1 44064U 19011B   21002.75259787  .00031157  00000-0  22194-3 0  9993
2 44064  51.6325  17.9189 0004218  71.0965 289.0491 15.73536629104184
CZ-2F R/B               
1 46390U 20063B   21002.75469509  .00032464  00000-0  14072-3 0  9999
2 46390  50.2018 142.5004 0009288 107.4433 252.7566 15.84459175 19052
2020-063G               
1 46395U 20063G   21002.71325613  .00016481  00000-0  88249-4 0  9996
2 46395  50.2046 144.6043 0008821  98.2121 261.9861 15.80406483 19013
